[{"OBJECT_NAME":"LIME","OBJECT_ID":"2025-009AR","EPOCH":"2026-03-09T17:44:15.459648","MEAN_MOTION":15.28703313,"ECCENTRICITY":0.00016347,"INCLINATION":97.3985,"RA_OF_ASC_NODE":151.4831,"ARG_OF_PERICENTER":35.9029,"MEAN_ANOMALY":324.232,"EPHEMERIS_TYPE":0,"CLASSIFICATION_TYPE":"U","NORAD_CAT_ID":62648,"ELEMENT_SET_NO":999,"REV_AT_EPOCH":6376,"BSTAR":0.00047722827,"MEAN_MOTION_DOT":0.00013254,"MEAN_MOTION_DDOT":0},{"OBJECT_NAME":"STARLINK-36136","OBJECT_ID":"2025-288J","EPOCH":"2026-03-09T22:05:54.793248","MEAN_MOTION":15.27584821,"ECCENTRICITY":0.00013373,"INCLINATION":43.0033,"RA_OF_ASC_NODE":22.0707,"ARG_OF_PERICENTER":242.9607,"MEAN_ANOMALY":117.1108,"EPHEMERIS_TYPE":0,"CLASSIFICATION_TYPE":"U","NORAD_CAT_ID":66967,"ELEMENT_SET_NO":999,"REV_AT_EPOCH":1532,"BSTAR":0.001275511,"MEAN_MOTION_DOT":0.00035009,"MEAN_MOTION_DDOT":0}]
